{
  "norad_id": 53248,
  "name": "STARLINK-4135",
  "history": [
    {
      "epoch": "2026-03-28T18:49:39.256032",
      "apogee_km": 540.6650162712249,
      "perigee_km": 538.8165593263248,
      "latitude_deg": 47.27537321170537,
      "longitude_deg": -59.88971551996656,
      "semi_major_axis_km": 6917.877787798774,
      "eccentricity": 0.0001336,
      "inclination_deg": 53.217,
      "raan_deg": 113.5074,
      "arg_perigee_deg": 75.1748,
      "mean_anomaly_deg": 284.9393,
      "mean_motion_rev_day": 15.08840851
    }
  ]
}