{"fetched_at":"2026-03-30T06:02:59Z","count":15439,"tles":[{"name":"STARLINK-4135","line1":"1 53248U 22086G   26087.78448213  .00000407  00000+0  43658-4 0  9990","line2":"2 53248  53.2170 113.5074 0001336  75.1748 284.9393 15.08840851204192","category":"Starlink"}]}